{
  "norad_id": 50479,
  "name": "ONEWEB-0399",
  "history": [
    {
      "epoch": "2026-04-14T19:04:43.595328Z",
      "apogee_km": 1218.9490267266483,
      "perigee_km": 1216.427212786889,
      "latitude_deg": -5.9265529052572966e-05,
      "longitude_deg": -95.48199933686898,
      "height_km": 1220.670393407064,
      "semi_major_axis_km": 7595.825119756768,
      "eccentricity": 0.000166,
      "inclination_deg": 87.8929,
      "raan_deg": 33.6659,
      "arg_perigee_deg": 94.3559,
      "mean_anomaly_deg": 265.7758,
      "mean_motion_rev_day": 13.11415541
    },
    {
      "epoch": "2026-04-15T20:42:52.304832Z",
      "apogee_km": 1218.9692819438533,
      "perigee_km": 1216.403412817108,
      "latitude_deg": 1.191415529013629e-05,
      "longitude_deg": -121.28330724430676,
      "height_km": 1220.672211731448,
      "semi_major_axis_km": 7595.82334738048,
      "eccentricity": 0.0001689,
      "inclination_deg": 87.8928,
      "raan_deg": 33.4537,
      "arg_perigee_deg": 94.4445,
      "mean_anomaly_deg": 265.6876,
      "mean_motion_rev_day": 13.11416
    },
    {
      "epoch": "2026-04-16T18:41:16.784736Z",
      "apogee_km": 1219.063786183723,
      "perigee_km": 1216.2852383325398,
      "latitude_deg": 6.992823035684955e-05,
      "longitude_deg": -91.96962118348368,
      "height_km": 1220.6205171725444,
      "semi_major_axis_km": 7595.811512258131,
      "eccentricity": 0.0001829,
      "inclination_deg": 87.8931,
      "raan_deg": 33.2718,
      "arg_perigee_deg": 92.4679,
      "mean_anomaly_deg": 267.6659,
      "mean_motion_rev_day": 13.11419065
    },
    {
      "epoch": "2026-04-17T18:29:33.178560Z",
      "apogee_km": 1218.9782339437998,
      "perigee_km": 1216.3780345070518,
      "latitude_deg": 4.7995852369505256e-05,
      "longitude_deg": -90.21234656383729,
      "height_km": 1220.6601446271995,
      "semi_major_axis_km": 7595.815134225425,
      "eccentricity": 0.00017116,
      "inclination_deg": 87.8928,
      "raan_deg": 33.075,
      "arg_perigee_deg": 94.2173,
      "mean_anomaly_deg": 265.9151,
      "mean_motion_rev_day": 13.11418127
    },
    {
      "epoch": "2026-04-18T12:48:13.529952Z",
      "apogee_km": 1219.0006402609524,
      "perigee_km": 1216.3572963039906,
      "latitude_deg": 2.7745998797726383e-05,
      "longitude_deg": -5.784092464493899,
      "height_km": 1220.6665253611038,
      "semi_major_axis_km": 7595.815968282472,
      "eccentricity": 0.000174,
      "inclination_deg": 87.8929,
      "raan_deg": 32.9234,
      "arg_perigee_deg": 94.3914,
      "mean_anomaly_deg": 265.7413,
      "mean_motion_rev_day": 13.11417911
    },
    {
      "epoch": "2026-04-19T19:55:57.913824Z",
      "apogee_km": 1219.0157226445417,
      "perigee_km": 1216.3359198812004,
      "latitude_deg": -4.2918642405129944e-05,
      "longitude_deg": -114.25505131899398,
      "height_km": 1220.6681923556755,
      "semi_major_axis_km": 7595.812821262871,
      "eccentricity": 0.0001764,
      "inclination_deg": 87.8927,
      "raan_deg": 32.6658,
      "arg_perigee_deg": 94.5393,
      "mean_anomaly_deg": 265.5936,
      "mean_motion_rev_day": 13.11418726
    },
    {
      "epoch": "2026-04-20T05:05:17.937024Z",
      "apogee_km": 1219.0581524256431,
      "perigee_km": 1216.2902388259572,
      "latitude_deg": -1.128882019943679e-05,
      "longitude_deg": 107.95971358654803,
      "height_km": 1220.6648561920467,
      "semi_major_axis_km": 7595.8111956258,
      "eccentricity": 0.0001822,
      "inclination_deg": 87.8932,
      "raan_deg": 32.59,
      "arg_perigee_deg": 94.3278,
      "mean_anomaly_deg": 265.8058,
      "mean_motion_rev_day": 13.11419147
    },
    {
      "epoch": "2026-04-21T19:32:30.482016Z",
      "apogee_km": 1219.103992525591,
      "perigee_km": 1216.2434102154539,
      "latitude_deg": -8.896438294264139e-06,
      "longitude_deg": -110.74008950241048,
      "height_km": 1220.6673060025596,
      "semi_major_axis_km": 7595.810701370522,
      "eccentricity": 0.0001883,
      "inclination_deg": 87.8933,
      "raan_deg": 32.2717,
      "arg_perigee_deg": 94.3099,
      "mean_anomaly_deg": 265.8244,
      "mean_motion_rev_day": 13.11419275
    },
    {
      "epoch": "2026-04-22T17:30:54.853056Z",
      "apogee_km": 1219.0689819295058,
      "perigee_km": 1216.2919510637548,
      "latitude_deg": 2.5384690205239726e-05,
      "longitude_deg": -81.42585347434303,
      "height_km": 1220.6757953119143,
      "semi_major_axis_km": 7595.81746649663,
      "eccentricity": 0.0001828,
      "inclination_deg": 87.8931,
      "raan_deg": 32.0899,
      "arg_perigee_deg": 94.5075,
      "mean_anomaly_deg": 265.6262,
      "mean_motion_rev_day": 13.11417523
    },
    {
      "epoch": "2026-04-23T11:49:35.195808Z",
      "apogee_km": 1219.0761503047243,
      "perigee_km": 1216.285446845527,
      "latitude_deg": 2.473193114116586e-05,
      "longitude_deg": 3.002335648008692,
      "height_km": 1220.6784857909372,
      "semi_major_axis_km": 7595.817798575125,
      "eccentricity": 0.0001837,
      "inclination_deg": 87.8929,
      "raan_deg": 31.9382,
      "arg_perigee_deg": 94.5832,
      "mean_anomaly_deg": 265.5506,
      "mean_motion_rev_day": 13.11417437
    },
    {
      "epoch": "2026-04-24T18:57:19.965024Z",
      "apogee_km": 1219.090614288264,
      "perigee_km": 1216.2816788886548,
      "latitude_deg": -2.0102235608852186e-05,
      "longitude_deg": -105.47033282193196,
      "height_km": 1220.677932902355,
      "semi_major_axis_km": 7595.823146588459,
      "eccentricity": 0.0001849,
      "inclination_deg": 87.8929,
      "raan_deg": 31.6805,
      "arg_perigee_deg": 94.3127,
      "mean_anomaly_deg": 265.8212,
      "mean_motion_rev_day": 13.11416052
    },
    {
      "epoch": "2026-04-25T18:45:36.580032Z",
      "apogee_km": 1219.1290916172793,
      "perigee_km": 1216.2441977970193,
      "latitude_deg": -8.066136856383885e-06,
      "longitude_deg": -103.71398262723203,
      "height_km": 1220.6650366907206,
      "semi_major_axis_km": 7595.823644707149,
      "eccentricity": 0.0001899,
      "inclination_deg": 87.8931,
      "raan_deg": 31.4837,
      "arg_perigee_deg": 93.6694,
      "mean_anomaly_deg": 266.4651,
      "mean_motion_rev_day": 13.11415923
    },
    {
      "epoch": "2026-04-26T18:33:53.341056Z",
      "apogee_km": 1219.1465721855684,
      "perigee_km": 1216.2329649536805,
      "latitude_deg": 9.318661986132904e-05,
      "longitude_deg": -101.95803858113435,
      "height_km": 1220.6854200749676,
      "semi_major_axis_km": 7595.826768569625,
      "eccentricity": 0.00019179,
      "inclination_deg": 87.8931,
      "raan_deg": 31.2871,
      "arg_perigee_deg": 94.3154,
      "mean_anomaly_deg": 265.8194,
      "mean_motion_rev_day": 13.11415114
    },
    {
      "epoch": "2026-04-27T18:22:10.056288Z",
      "apogee_km": 1219.159943488301,
      "perigee_km": 1216.215801767671,
      "latitude_deg": -4.180930094966711e-05,
      "longitude_deg": -100.20211152210705,
      "height_km": 1220.680474868005,
      "semi_major_axis_km": 7595.824872627986,
      "eccentricity": 0.0001938,
      "inclination_deg": 87.8933,
      "raan_deg": 31.0903,
      "arg_perigee_deg": 94.1521,
      "mean_anomaly_deg": 265.9828,
      "mean_motion_rev_day": 13.11415605
    },
    {
      "epoch": "2026-04-28T18:10:26.813856Z",
      "apogee_km": 1219.1665286916705,
      "perigee_km": 1216.208714584005,
      "latitude_deg": 5.2488225526574286e-05,
      "longitude_deg": -98.4464529790276,
      "height_km": 1220.6775642221983,
      "semi_major_axis_km": 7595.8246216378375,
      "eccentricity": 0.0001947,
      "inclination_deg": 87.8933,
      "raan_deg": 30.8934,
      "arg_perigee_deg": 94.0308,
      "mean_anomaly_deg": 266.1043,
      "mean_motion_rev_day": 13.1141567
    },
    {
      "epoch": "2026-04-29T19:48:35.607168Z",
      "apogee_km": 1219.1777679428324,
      "perigee_km": 1216.1971664219109,
      "latitude_deg": -2.1633936105707284e-05,
      "longitude_deg": -124.2481180160184,
      "height_km": 1220.675997070149,
      "semi_major_axis_km": 7595.824467182371,
      "eccentricity": 0.0001962,
      "inclination_deg": 87.8933,
      "raan_deg": 30.6812,
      "arg_perigee_deg": 93.9461,
      "mean_anomaly_deg": 266.1891,
      "mean_motion_rev_day": 13.1141571
    },
    {
      "epoch": "2026-04-30T12:17:24.050688Z",
      "apogee_km": 1219.1893072513094,
      "perigee_km": 1216.180298402338,
      "latitude_deg": -4.6064949822121655e-05,
      "longitude_deg": -12.263081715842883,
      "height_km": 1220.6633822104134,
      "semi_major_axis_km": 7595.821802826824,
      "eccentricity": 0.00019807,
      "inclination_deg": 87.8932,
      "raan_deg": 30.5449,
      "arg_perigee_deg": 93.5303,
      "mean_anomaly_deg": 266.6051,
      "mean_motion_rev_day": 13.114164
    },
    {
      "epoch": "2026-05-02T06:24:20.863296Z",
      "apogee_km": 1219.2044953418035,
      "perigee_km": 1216.1464212460942,
      "latitude_deg": -2.6009507922821476e-05,
      "longitude_deg": 73.92206397356273,
      "height_km": 1220.6431276511528,
      "semi_major_axis_km": 7595.812458293948,
      "eccentricity": 0.0002013,
      "inclination_deg": 87.8932,
      "raan_deg": 30.1964,
      "arg_perigee_deg": 93.0664,
      "mean_anomaly_deg": 267.0694,
      "mean_motion_rev_day": 13.1141882
    },
    {
      "epoch": "2026-05-03T17:11:49.368768Z",
      "apogee_km": 1219.230860610549,
      "perigee_km": 1216.1150593649618,
      "latitude_deg": 2.8333244578068425e-05,
      "longitude_deg": -89.66333655616138,
      "height_km": 1220.6265129255685,
      "semi_major_axis_km": 7595.809959987755,
      "eccentricity": 0.0002051,
      "inclination_deg": 87.8933,
      "raan_deg": 29.9086,
      "arg_perigee_deg": 92.4927,
      "mean_anomaly_deg": 267.6436,
      "mean_motion_rev_day": 13.11419467
    }
  ]
}